[{"OBJECT_NAME":"STARLINK-5669","OBJECT_ID":"2023-015L","EPOCH":"2026-03-05T02:39:21.214944","MEAN_MOTION":15.02544776,"ECCENTRICITY":0.00013142,"INCLINATION":43.0051,"RA_OF_ASC_NODE":351.0042,"ARG_OF_PERICENTER":265.7099,"MEAN_ANOMALY":94.3593,"EPHEMERIS_TYPE":0,"CLASSIFICATION_TYPE":"U","NORAD_CAT_ID":55459,"ELEMENT_SET_NO":999,"REV_AT_EPOCH":17006,"BSTAR":0.00010880919,"MEAN_MOTION_DOT":1.267e-5,"MEAN_MOTION_DDOT":0},{"OBJECT_NAME":"STARLINK-5678","OBJECT_ID":"2023-015M","EPOCH":"2026-03-05T04:10:17.812992","MEAN_MOTION":15.02534941,"ECCENTRICITY":0.00012816,"INCLINATION":43.0049,"RA_OF_ASC_NODE":350.6195,"ARG_OF_PERICENTER":269.4122,"MEAN_ANOMALY":90.6573,"EPHEMERIS_TYPE":0,"CLASSIFICATION_TYPE":"U","NORAD_CAT_ID":55460,"ELEMENT_SET_NO":999,"REV_AT_EPOCH":17007,"BSTAR":1.8729812e-5,"MEAN_MOTION_DOT":4.9e-7,"MEAN_MOTION_DDOT":0},{"OBJECT_NAME":"STARLINK-5646","OBJECT_ID":"2023-015N","EPOCH":"2026-03-05T04:19:54.501888","MEAN_MOTION":15.02518371,"ECCENTRICITY":3.023e-5,"INCLINATION":43.0067,"RA_OF_ASC_NODE":350.6676,"ARG_OF_PERICENTER":322.9675,"MEAN_ANOMALY":37.1147,"EPHEMERIS_TYPE":0,"CLASSIFICATION_TYPE":"U","NORAD_CAT_ID":55461,"ELEMENT_SET_NO":999,"REV_AT_EPOCH":17007,"BSTAR":0.00034831088,"MEAN_MOTION_DOT":4.502e-5,"MEAN_MOTION_DDOT":0},{"OBJECT_NAME":"STARLINK-5673","OBJECT_ID":"2023-015P","EPOCH":"2026-03-05T05:30:02.139552","MEAN_MOTION":15.025394,"ECCENTRICITY":0.00011419,"INCLINATION":43.0059,"RA_OF_ASC_NODE":350.1741,"ARG_OF_PERICENTER":278.4675,"MEAN_ANOMALY":81.6038,"EPHEMERIS_TYPE":0,"CLASSIFICATION_TYPE":"U","NORAD_CAT_ID":55462,"ELEMENT_SET_NO":999,"REV_AT_EPOCH":17008,"BSTAR":4.3553611e-5,"MEAN_MOTION_DOT":3.85e-6,"MEAN_MOTION_DDOT":0},{"OBJECT_NAME":"STARLINK-5677","OBJECT_ID":"2023-015Q","EPOCH":"2026-03-05T04:02:20.001120","MEAN_MOTION":15.02527591,"ECCENTRICITY":0.00011035,"INCLINATION":43.0023,"RA_OF_ASC_NODE":350.577,"ARG_OF_PERICENTER":258.9604,"MEAN_ANOMALY":101.1115,"EPHEMERIS_TYPE":0,"CLASSIFICATION_TYPE":"U","NORAD_CAT_ID":55463,"ELEMENT_SET_NO":999,"REV_AT_EPOCH":17007,"BSTAR":6.2799584e-5,"MEAN_MOTION_DOT":6.45e-6,"MEAN_MOTION_DDOT":0},{"OBJECT_NAME":"STARLINK-5676","OBJECT_ID":"2023-015R","EPOCH":"2026-03-05T03:44:43.476000","MEAN_MOTION":15.02536625,"ECCENTRICITY":0.00012836,"INCLINATION":43.0057,"RA_OF_ASC_NODE":350.484,"ARG_OF_PERICENTER":272.3396,"MEAN_ANOMALY":87.7299,"EPHEMERIS_TYPE":0,"CLASSIFICATION_TYPE":"U","NORAD_CAT_ID":55464,"ELEMENT_SET_NO":999,"REV_AT_EPOCH":17007,"BSTAR":2.684699e-5,"MEAN_MOTION_DOT":1.59e-6,"MEAN_MOTION_DDOT":0},{"OBJECT_NAME":"STARLINK-5674","OBJECT_ID":"2023-015S","EPOCH":"2026-03-05T03:49:31.443744","MEAN_MOTION":15.02549455,"ECCENTRICITY":0.00013203,"INCLINATION":43.0022,"RA_OF_ASC_NODE":350.5157,"ARG_OF_PERICENTER":290.9951,"MEAN_ANOMALY":69.075,"EPHEMERIS_TYPE":0,"CLASSIFICATION_TYPE":"U","NORAD_CAT_ID":55465,"ELEMENT_SET_NO":999,"REV_AT_EPOCH":17007,"BSTAR":-0.00044434518,"MEAN_MOTION_DOT":-6.203e-5,"MEAN_MOTION_DDOT":0},{"OBJECT_NAME":"STARLINK-5628","OBJECT_ID":"2023-015T","EPOCH":"2026-03-05T05:01:16.455936","MEAN_MOTION":15.02536267,"ECCENTRICITY":0.00014221,"INCLINATION":43.0053,"RA_OF_ASC_NODE":350.0218,"ARG_OF_PERICENTER":262.269,"MEAN_ANOMALY":97.7991,"EPHEMERIS_TYPE":0,"CLASSIFICATION_TYPE":"U","NORAD_CAT_ID":55466,"ELEMENT_SET_NO":999,"REV_AT_EPOCH":17008,"BSTAR":2.6437237e-5,"MEAN_MOTION_DOT":1.53e-6,"MEAN_MOTION_DDOT":0},{"OBJECT_NAME":"STARLINK-5679","OBJECT_ID":"2023-015U","EPOCH":"2026-03-05T03:59:08.052288","MEAN_MOTION":15.02523785,"ECCENTRICITY":0.00010458,"INCLINATION":43.0026,"RA_OF_ASC_NODE":350.5617,"ARG_OF_PERICENTER":271.5896,"MEAN_ANOMALY":88.4826,"EPHEMERIS_TYPE":0,"CLASSIFICATION_TYPE":"U","NORAD_CAT_ID":55467,"ELEMENT_SET_NO":999,"REV_AT_EPOCH":17007,"BSTAR":5.2588007e-5,"MEAN_MOTION_DOT":5.07e-6,"MEAN_MOTION_DDOT":0},{"OBJECT_NAME":"STARLINK-5672","OBJECT_ID":"2023-015V","EPOCH":"2026-03-05T05:17:15.130464","MEAN_MOTION":15.02534999,"ECCENTRICITY":0.00014137,"INCLINATION":43.0057,"RA_OF_ASC_NODE":350.1063,"ARG_OF_PERICENTER":271.4713,"MEAN_ANOMALY":88.5967,"EPHEMERIS_TYPE":0,"CLASSIFICATION_TYPE":"U","NORAD_CAT_ID":55468,"ELEMENT_SET_NO":999,"REV_AT_EPOCH":17008,"BSTAR":1.2132215e-5,"MEAN_MOTION_DOT":-4.0e-7,"MEAN_MOTION_DDOT":0},{"OBJECT_NAME":"STARLINK-5681","OBJECT_ID":"2023-015W","EPOCH":"2026-03-05T03:46:19.456896","MEAN_MOTION":15.02545689,"ECCENTRICITY":0.00018559,"INCLINATION":43.0065,"RA_OF_ASC_NODE":350.4909,"ARG_OF_PERICENTER":253.4586,"MEAN_ANOMALY":106.6053,"EPHEMERIS_TYPE":0,"CLASSIFICATION_TYPE":"U","NORAD_CAT_ID":55469,"ELEMENT_SET_NO":999,"REV_AT_EPOCH":17007,"BSTAR":-6.9485041e-5,"MEAN_MOTION_DOT":-1.143e-5,"MEAN_MOTION_DDOT":0},{"OBJECT_NAME":"STARLINK-5708","OBJECT_ID":"2023-015X","EPOCH":"2026-03-05T03:35:08.322432","MEAN_MOTION":15.02533286,"ECCENTRICITY":0.00011797,"INCLINATION":43.0044,"RA_OF_ASC_NODE":350.4346,"ARG_OF_PERICENTER":271.5242,"MEAN_ANOMALY":88.5465,"EPHEMERIS_TYPE":0,"CLASSIFICATION_TYPE":"U","NORAD_CAT_ID":55470,"ELEMENT_SET_NO":999,"REV_AT_EPOCH":17007,"BSTAR":2.1117978e-5,"MEAN_MOTION_DOT":8.2e-7,"MEAN_MOTION_DDOT":0},{"OBJECT_NAME":"STARLINK-5711","OBJECT_ID":"2023-015Y","EPOCH":"2026-03-05T03:31:56.320896","MEAN_MOTION":15.02533906,"ECCENTRICITY":0.00013489,"INCLINATION":43.0063,"RA_OF_ASC_NODE":350.4146,"ARG_OF_PERICENTER":266.4753,"MEAN_ANOMALY":93.5935,"EPHEMERIS_TYPE":0,"CLASSIFICATION_TYPE":"U","NORAD_CAT_ID":55471,"ELEMENT_SET_NO":999,"REV_AT_EPOCH":17007,"BSTAR":7.178714e-6,"MEAN_MOTION_DOT":-1.07e-6,"MEAN_MOTION_DDOT":0},{"OBJECT_NAME":"STARLINK-5705","OBJECT_ID":"2023-015Z","EPOCH":"2026-03-05T03:30:53.006112","MEAN_MOTION":15.025351,"ECCENTRICITY":0.00013107,"INCLINATION":43.0046,"RA_OF_ASC_NODE":338.2687,"ARG_OF_PERICENTER":271.1793,"MEAN_ANOMALY":88.8899,"EPHEMERIS_TYPE":0,"CLASSIFICATION_TYPE":"U","NORAD_CAT_ID":55472,"ELEMENT_SET_NO":999,"REV_AT_EPOCH":17021,"BSTAR":-4.2862897e-5,"MEAN_MOTION_DOT":-7.83e-6,"MEAN_MOTION_DDOT":0},{"OBJECT_NAME":"STARLINK-5689","OBJECT_ID":"2023-015AB","EPOCH":"2026-03-05T06:00:02.999808","MEAN_MOTION":15.07264552,"ECCENTRICITY":0.00016698,"INCLINATION":43.0013,"RA_OF_ASC_NODE":3.2408,"ARG_OF_PERICENTER":273.3975,"MEAN_ANOMALY":121.125,"EPHEMERIS_TYPE":0,"CLASSIFICATION_TYPE":"U","NORAD_CAT_ID":55474,"ELEMENT_SET_NO":999,"REV_AT_EPOCH":582,"BSTAR":0.005990472,"MEAN_MOTION_DOT":0.0009288,"MEAN_MOTION_DDOT":0},{"OBJECT_NAME":"STARLINK-5650","OBJECT_ID":"2023-015AC","EPOCH":"2026-03-05T03:20:44.930688","MEAN_MOTION":15.02533923,"ECCENTRICITY":0.00013885,"INCLINATION":43.0057,"RA_OF_ASC_NODE":350.3565,"ARG_OF_PERICENTER":264.0814,"MEAN_ANOMALY":95.9871,"EPHEMERIS_TYPE":0,"CLASSIFICATION_TYPE":"U","NORAD_CAT_ID":55475,"ELEMENT_SET_NO":999,"REV_AT_EPOCH":17007,"BSTAR":3.4393904e-5,"MEAN_MOTION_DOT":2.61e-6,"MEAN_MOTION_DDOT":0}]
