STARLINK-5669           
1 55459U 23015L   26064.11066221  .00001267  00000+0  10881-3 0  9992
2 55459  43.0051 351.0042 0001314 265.7099  94.3593 15.02544776170063
STARLINK-5678           
1 55460U 23015M   26064.17381728  .00000049  00000+0  18730-4 0  9991
2 55460  43.0049 350.6195 0001281 269.4122  90.6573 15.02534941170078
STARLINK-5646           
1 55461U 23015N   26064.18049192  .00004502  00000+0  34831-3 0  9996
2 55461  43.0067 350.6676 0000302 322.9675  37.1147 15.02518371170076
STARLINK-5673           
1 55462U 23015P   26064.22919143  .00000385  00000+0  43554-4 0  9992
2 55462  43.0059 350.1741 0001141 278.4675  81.6038 15.02539400170083
STARLINK-5677           
1 55463U 23015Q   26064.16828705  .00000645  00000+0  62800-4 0  9993
2 55463  43.0023 350.5770 0001103 258.9604 101.1115 15.02527591170075
STARLINK-5676           
1 55464U 23015R   26064.15605875  .00000159  00000+0  26847-4 0  9995
2 55464  43.0057 350.4840 0001283 272.3396  87.7299 15.02536625170077
STARLINK-5674           
1 55465U 23015S   26064.15939171 -.00006203  00000+0 -44435-3 0  9995
2 55465  43.0022 350.5157 0001320 290.9951  69.0750 15.02549455170077
STARLINK-5628           
1 55466U 23015T   26064.20921824  .00000153  00000+0  26437-4 0  9997
2 55466  43.0053 350.0218 0001422 262.2690  97.7991 15.02536267170083
STARLINK-5679           
1 55467U 23015U   26064.16606542  .00000507  00000+0  52588-4 0  9999
2 55467  43.0026 350.5617 0001045 271.5896  88.4826 15.02523785170078
STARLINK-5672           
1 55468U 23015V   26064.22031401 -.00000040  00000+0  12132-4 0  9997
2 55468  43.0057 350.1063 0001413 271.4713  88.5967 15.02534999170087
STARLINK-5681           
1 55469U 23015W   26064.15716964 -.00001143  00000+0 -69485-4 0  9993
2 55469  43.0065 350.4909 0001855 253.4586 106.6053 15.02545689170072
STARLINK-5708           
1 55470U 23015X   26064.14940188  .00000082  00000+0  21118-4 0  9991
2 55470  43.0044 350.4346 0001179 271.5242  88.5465 15.02533286170070
STARLINK-5711           
1 55471U 23015Y   26064.14717964 -.00000107  00000+0  71787-5 0  9993
2 55471  43.0063 350.4146 0001348 266.4753  93.5935 15.02533906170075
STARLINK-5705           
1 55472U 23015Z   26064.14644683 -.00000783  00000+0 -42863-4 0  9994
2 55472  43.0046 338.2687 0001310 271.1793  88.8899 15.02535100170217
STARLINK-5689           
1 55474U 23015AB  26064.25003472  .00092880  00000+0  59905-2 0  9993
2 55474  43.0013   3.2408 0001669 273.3975 121.1250 15.07264552  5827
STARLINK-5650           
1 55475U 23015AC  26064.13940892  .00000261  00000+0  34394-4 0  9996
2 55475  43.0057 350.3565 0001388 264.0814  95.9871 15.02533923170076
